[{"OBJECT_NAME":"STARLINK-32616","OBJECT_ID":"2024-207J","EPOCH":"2026-03-09T23:10:23.967552","MEAN_MOTION":15.27586336,"ECCENTRICITY":0.00023795,"INCLINATION":43.0046,"RA_OF_ASC_NODE":280.2373,"ARG_OF_PERICENTER":264.898,"MEAN_ANOMALY":95.16,"EPHEMERIS_TYPE":0,"CLASSIFICATION_TYPE":"U","NORAD_CAT_ID":61920,"ELEMENT_SET_NO":999,"REV_AT_EPOCH":7476,"BSTAR":0.001015076,"MEAN_MOTION_DOT":0.00027782,"MEAN_MOTION_DDOT":0},{"OBJECT_NAME":"TRANSPORTER-1 OBJECT Z","OBJECT_ID":"2021-006Z","EPOCH":"2026-03-09T22:55:57.522432","MEAN_MOTION":15.30965056,"ECCENTRICITY":0.00100878,"INCLINATION":97.2377,"RA_OF_ASC_NODE":113.4736,"ARG_OF_PERICENTER":179.6869,"MEAN_ANOMALY":180.438,"EPHEMERIS_TYPE":0,"CLASSIFICATION_TYPE":"U","NORAD_CAT_ID":47436,"ELEMENT_SET_NO":999,"REV_AT_EPOCH":28420,"BSTAR":0.00024088983,"MEAN_MOTION_DOT":7.143e-5,"MEAN_MOTION_DDOT":0}]
